MALLIGYONG-1            
1 58400U 23179A   23364.61705588  .00006306  00000+0  28063-3 0  9993
2 58400  97.4254 248.8792 0016850 136.2799 223.9775 15.21700828  5933
